{
  "type": "FeatureCollection",
  "features": [
    {
      "type": "Feature",
      "properties": {
        "norad_id": 34314,
        "name": "COSMOS 2251 DEB",
        "group": "cosmos-2251-debris",
        "lat": 70.10902426166416,
        "lon": 77.64102935178474,
        "alt_km": 775.0506210695048,
        "timestamp": "2025-12-11T18:59:46.469267+00:00",
        "meta_object_name": "COSMOS 2251 DEB",
        "meta_object_id": "1993-036NL",
        "meta_epoch": "2025-12-11T02:09:39.539808",
        "meta_mean_motion": 14.17417945,
        "meta_eccentricity": 0.01027402,
        "meta_inclination": 74.0068,
        "meta_ra_of_asc_node": 311.3274,
        "meta_arg_of_pericenter": 57.3872,
        "meta_mean_anomaly": 65.7399,
        "meta_ephemeris_type": 0,
        "meta_classification_type": "U",
        "meta_norad_cat_id": 34314,
        "meta_element_set_no": 999,
        "meta_rev_at_epoch": 86634,
        "meta_bstar": 0.00084232468,
        "meta_mean_motion_dot": 1.773e-05,
        "meta_mean_motion_ddot": 0,
        "tle_line1": "1 34314U 93036NL  25345.09004097  .00001773  00000+0  84232-3 0  9993",
        "tle_line2": "2 34314  74.0068 311.3274 0102740  57.3872  65.7399 14.17417945866348"
      },
      "geometry": {
        "type": "Point",
        "coordinates": [
          77.64102935178474,
          70.10902426166416
        ]
      }
    },
    {
      "type": "Feature",
      "properties": {
        "norad_id": 34316,
        "name": "COSMOS 2251 DEB",
        "group": "cosmos-2251-debris",
        "lat": 36.986141407697936,
        "lon": -8.784513724903238,
        "alt_km": 584.2234095490821,
        "timestamp": "2025-12-11T18:59:46.469277+00:00",
        "meta_object_name": "COSMOS 2251 DEB",
        "meta_object_id": "1993-036NN",
        "meta_epoch": "2025-12-10T23:30:32.937696",
        "meta_mean_motion": 14.91739436,
        "meta_eccentricity": 0.0008248,
        "meta_inclination": 74.0655,
        "meta_ra_of_asc_node": 340.4146,
        "meta_arg_of_pericenter": 65.7346,
        "meta_mean_anomaly": 294.4697,
        "meta_ephemeris_type": 0,
        "meta_classification_type": "U",
        "meta_norad_cat_id": 34316,
        "meta_element_set_no": 999,
        "meta_rev_at_epoch": 89183,
        "meta_bstar": 0.0022841,
        "meta_mean_motion_dot": 0.00023063,
        "meta_mean_motion_ddot": 0,
        "tle_line1": "1 34316U 93036NN  25344.97954789  .00023063  00000+0  22841-2 0  9996",
        "tle_line2": "2 34316  74.0655 340.4146 0008248  65.7346 294.4697 14.91739436891838"
      },
      "geometry": {
        "type": "Point",
        "coordinates": [
          -8.784513724903238,
          36.986141407697936
        ]
      }
    },
    {
      "type": "Feature",
      "properties": {
        "norad_id": 34317,
        "name": "COSMOS 2251 DEB",
        "group": "cosmos-2251-debris",
        "lat": -34.53482663958753,
        "lon": -131.23536894017585,
        "alt_km": 1268.320913112042,
        "timestamp": "2025-12-11T18:59:46.469288+00:00",
        "meta_object_name": "COSMOS 2251 DEB",
        "meta_object_id": "1993-036NP",
        "meta_epoch": "2025-12-11T05:56:04.140096",
        "meta_mean_motion": 13.6511997,
        "meta_eccentricity": 0.0336468,
        "meta_inclination": 73.9247,
        "meta_ra_of_asc_node": 38.215,
        "meta_arg_of_pericenter": 27.7644,
        "meta_mean_anomaly": 35.3062,
        "meta_ephemeris_type": 0,
        "meta_classification_type": "U",
        "meta_norad_cat_id": 34317,
        "meta_element_set_no": 999,
        "meta_rev_at_epoch": 83599,
        "meta_bstar": 0.00056073568,
        "meta_mean_motion_dot": 6.47e-06,
        "meta_mean_motion_ddot": 0,
        "tle_line1": "1 34317U 93036NP  25345.24727014  .00000647  00000+0  56074-3 0  9996",
        "tle_line2": "2 34317  73.9247  38.2150 0336468  27.7644  35.3062 13.65119970835996"
      },
      "geometry": {
        "type": "Point",
        "coordinates": [
          -131.23536894017585,
          -34.53482663958753
        ]
      }
    },
    {
      "type": "Feature",
      "properties": {
        "norad_id": 34321,
        "name": "COSMOS 2251 DEB",
        "group": "cosmos-2251-debris",
        "lat": -28.284963097999274,
        "lon": 149.27795539235433,
        "alt_km": 722.7659287910055,
        "timestamp": "2025-12-11T18:59:46.469299+00:00",
        "meta_object_name": "COSMOS 2251 DEB",
        "meta_object_id": "1993-036NT",
        "meta_epoch": "2025-12-11T04:45:53.279712",
        "meta_mean_motion": 14.50043953,
        "meta_eccentricity": 0.00157613,
        "meta_inclination": 74.0279,
        "meta_ra_of_asc_node": 159.2572,
        "meta_arg_of_pericenter": 288.8854,
        "meta_mean_anomaly": 187.3895,
        "meta_ephemeris_type": 0,
        "meta_classification_type": "U",
        "meta_norad_cat_id": 34321,
        "meta_element_set_no": 999,
        "meta_rev_at_epoch": 88464,
        "meta_bstar": 0.00085439393,
        "meta_mean_motion_dot": 3.291e-05,
        "meta_mean_motion_ddot": 0,
        "tle_line1": "1 34321U 93036NT  25345.19853333  .00003291  00000+0  85439-3 0  9994",
        "tle_line2": "2 34321  74.0279 159.2572 0015761 288.8854 187.3895 14.50043953884643"
      },
      "geometry": {
        "type": "Point",
        "coordinates": [
          149.27795539235433,
          -28.284963097999274
        ]
      }
    },
    {
      "type": "Feature",
      "properties": {
        "norad_id": 34323,
        "name": "COSMOS 2251 DEB",
        "group": "cosmos-2251-debris",
        "lat": -72.6794593226886,
        "lon": 12.333400174606638,
        "alt_km": 656.8815460333772,
        "timestamp": "2025-12-11T18:59:46.469310+00:00",
        "meta_object_name": "COSMOS 2251 DEB",
        "meta_object_id": "1993-036NV",
        "meta_epoch": "2025-12-10T12:51:31.760064",
        "meta_mean_motion": 14.74301741,
        "meta_eccentricity": 0.00595983,
        "meta_inclination": 73.9532,
        "meta_ra_of_asc_node": 127.4387,
        "meta_arg_of_pericenter": 172.0021,
        "meta_mean_anomaly": 268.5797,
        "meta_ephemeris_type": 0,
        "meta_classification_type": "U",
        "meta_norad_cat_id": 34323,
        "meta_element_set_no": 999,
        "meta_rev_at_epoch": 88407,
        "meta_bstar": 0.0039505417,
        "meta_mean_motion_dot": 0.00026981,
        "meta_mean_motion_ddot": 0,
        "tle_line1": "1 34323U 93036NV  25344.53578426  .00026981  00000+0  39505-2 0  9993",
        "tle_line2": "2 34323  73.9532 127.4387 0059598 172.0021 268.5797 14.74301741884070"
      },
      "geometry": {
        "type": "Point",
        "coordinates": [
          12.333400174606638,
          -72.6794593226886
        ]
      }
    },
    {
      "type": "Feature",
      "properties": {
        "norad_id": 34325,
        "name": "COSMOS 2251 DEB",
        "group": "cosmos-2251-debris",
        "lat": -2.5802682132864536,
        "lon": -166.26861217525237,
        "alt_km": 995.3744210935292,
        "timestamp": "2025-12-11T18:59:46.469321+00:00",
        "meta_object_name": "COSMOS 2251 DEB",
        "meta_object_id": "1993-036NX",
        "meta_epoch": "2025-12-11T00:56:14.309664",
        "meta_mean_motion": 14.04455405,
        "meta_eccentricity": 0.01924029,
        "meta_inclination": 73.8713,
        "meta_ra_of_asc_node": 195.8038,
        "meta_arg_of_pericenter": 213.4655,
        "meta_mean_anomaly": 299.7095,
        "meta_ephemeris_type": 0,
        "meta_classification_type": "U",
        "meta_norad_cat_id": 34325,
        "meta_element_set_no": 999,
        "meta_rev_at_epoch": 85491,
        "meta_bstar": 0.0024267462,
        "meta_mean_motion_dot": 4.539e-05,
        "meta_mean_motion_ddot": 0,
        "tle_line1": "1 34325U 93036NX  25345.03905451  .00004539  00000+0  24267-2 0  9997",
        "tle_line2": "2 34325  73.8713 195.8038 0192402 213.4655 299.7095 14.04455405854916"
      },
      "geometry": {
        "type": "Point",
        "coordinates": [
          -166.26861217525237,
          -2.5802682132864536
        ]
      }
    },
    {
      "type": "Feature",
      "properties": {
        "norad_id": 34327,
        "name": "COSMOS 2251 DEB",
        "group": "cosmos-2251-debris",
        "lat": -58.36341543709298,
        "lon": 21.554922760734986,
        "alt_km": 614.3440684890411,
        "timestamp": "2025-12-11T18:59:46.469334+00:00",
        "meta_object_name": "COSMOS 2251 DEB",
        "meta_object_id": "1993-036NZ",
        "meta_epoch": "2025-12-11T07:24:41.025024",
        "meta_mean_motion": 14.89130866,
        "meta_eccentricity": 0.0032718,
        "meta_inclination": 73.9936,
        "meta_ra_of_asc_node": 174.7502,
        "meta_arg_of_pericenter": 351.4093,
        "meta_mean_anomaly": 184.6025,
        "meta_ephemeris_type": 0,
        "meta_classification_type": "U",
        "meta_norad_cat_id": 34327,
        "meta_element_set_no": 999,
        "meta_rev_at_epoch": 89486,
        "meta_bstar": 0.0023345642,
        "meta_mean_motion_dot": 0.00022293,
        "meta_mean_motion_ddot": 0,
        "tle_line1": "1 34327U 93036NZ  25345.30880816  .00022293  00000+0  23346-2 0  9990",
        "tle_line2": "2 34327  73.9936 174.7502 0032718 351.4093 184.6025 14.89130866894867"
      },
      "geometry": {
        "type": "Point",
        "coordinates": [
          21.554922760734986,
          -58.36341543709298
        ]
      }
    }
  ]
}